OBJECT_NAME,OBJECT_ID,EPOCH,MEAN_MOTION,ECCENTRICITY,INCLINATION,RA_OF_ASC_NODE,ARG_OF_PERICENTER,MEAN_ANOMALY,EPHEMERIS_TYPE,CLASSIFICATION_TYPE,NORAD_CAT_ID,ELEMENT_SET_NO,REV_AT_EPOCH,BSTAR,MEAN_MOTION_DOT,MEAN_MOTION_DDOT
TIANMU-1 21,2023-208C,2026-07-18T20:33:58.352832,15.35592148,.0007056,97.4532,319.8210,190.9662,169.1429,0,U,58662,999,14242,.15641E-3,.5332E-4,0
TIANMU-1 22,2023-208D,2026-07-18T19:57:24.031296,15.31456716,.0003097,97.4525,316.2157,202.7396,157.3709,0,U,58663,999,14217,.12968E-3,.386E-4,0
TIANMU-1 15,2024-004A,2026-07-18T19:36:38.718720,15.26934779,.0006348,97.4673,26.0080,213.6041,146.4796,0,U,58700,999,14060,.10585E-3,.2725E-4,0
TIANMU-1 16,2024-004B,2026-07-18T20:55:29.048736,15.27038746,.0004667,97.4622,25.2775,228.8693,131.2143,0,U,58701,999,14061,.10585E-3,.2734E-4,0
TIANMU-1 17,2024-004C,2026-07-18T20:34:35.177376,15.27035837,.0004099,97.4649,25.7594,234.4102,125.6755,0,U,58702,999,14060,.10177E-3,.2625E-4,0
TIANMU-1 18,2024-004D,2026-07-18T20:00:26.855424,15.26950445,.0004079,97.4666,25.9987,208.7317,151.3697,0,U,58703,999,14060,.10318E-3,.2655E-4,0
INSAT-3DS,2024-033A,2026-07-18T20:09:38.617920,1.00270803,.0001207,0.0809,264.1237,221.8902,195.0919,0,U,58990,999,4738,0,-.162E-5,0
METEOR-M2 4,2024-039A,2026-07-18T20:05:43.238400,14.22432328,.0008247,98.7028,158.7407,79.7459,280.4648,0,U,59051,999,12376,.13436E-4,-.14E-6,0
GOES 19,2024-119A,2026-07-18T15:05:38.631840,1.00270741,.000039,0.0180,140.2723,52.0769,255.2869,0,U,60133,999,727,0,-.255E-5,0
MTG-S1,2025-143A,2026-07-18T18:58:38.631360,1.00274651,.0003311,0.5824,345.9806,259.1431,335.7516,0,U,64723,999,373,0,-.13E-6,0
METOP-SGA1,2025-172A,2026-07-14T18:20:46.629312,14.19819127,.00070989,98.6631,254.9090,333.3306,26.7504,0,U,65159,999,4770,.2916334E-4,.19E-6,0
FENGYUN 3H,2025-219A,2026-07-18T19:42:37.198368,14.19925118,.0001076,98.6769,139.9762,61.0817,299.0468,0,U,65815,999,4187,.2235E-4,.4E-7,0
