TIANMU-1 21             
1 58662U 23208C   26199.85692538  .00005332  00000+0  15641-3 0  9997
2 58662  97.4532 319.8210 0007056 190.9662 169.1429 15.35592148142422
TIANMU-1 22             
1 58663U 23208D   26199.83152814  .00003860  00000+0  12968-3 0  9997
2 58663  97.4525 316.2157 0003097 202.7396 157.3709 15.31456716142171
TIANMU-1 15             
1 58700U 24004A   26199.81711480  .00002725  00000+0  10585-3 0  9994
2 58700  97.4673  26.0080 0006348 213.6041 146.4796 15.26934779140603
TIANMU-1 16             
1 58701U 24004B   26199.87186399  .00002734  00000+0  10585-3 0  9996
2 58701  97.4622  25.2775 0004667 228.8693 131.2143 15.27038746140612
TIANMU-1 17             
1 58702U 24004C   26199.85735159  .00002625  00000+0  10177-3 0  9995
2 58702  97.4649  25.7594 0004099 234.4102 125.6755 15.27035837140606
TIANMU-1 18             
1 58703U 24004D   26199.83364416  .00002655  00000+0  10318-3 0  9998
2 58703  97.4666  25.9987 0004079 208.7317 151.3697 15.26950445140605
INSAT-3DS               
1 58990U 24033A   26199.84003030 -.00000162  00000+0  00000+0 0  9996
2 58990   0.0809 264.1237 0001207 221.8902 195.0919  1.00270803 47386
METEOR-M2 4             
1 59051U 24039A   26199.83730600 -.00000014  00000+0  13436-4 0  9998
2 59051  98.7028 158.7407 0008247  79.7459 280.4648 14.22432328123762
GOES 19                 
1 60133U 24119A   26199.62891935 -.00000255  00000+0  00000+0 0  9991
2 60133   0.0180 140.2723 0000390  52.0769 255.2869  1.00270741  7279
MTG-S1                  
1 64723U 25143A   26199.79072490 -.00000013  00000+0  00000+0 0  9995
2 64723   0.5824 345.9806 0003311 259.1431 335.7516  1.00274651  3730
METOP-SGA1              
1 65159U 25172A   26195.76442858  .00000019  00000+0  29163-4 0  9994
2 65159  98.6631 254.9090 0007098 333.3306  26.7504 14.19819127 47700
FENGYUN 3H              
1 65815U 25219A   26199.82126387  .00000004  00000+0  22350-4 0  9997
2 65815  98.6769 139.9762 0001076  61.0817 299.0468 14.19925118 41875
